COSMOS 2361 [-]         
1 25590U 98076A   20035.01946407  .00000013  00000-0 -30003-5 0  9998
2 25590  82.9356 125.1125 0032955  91.5877  80.8551 13.72974738 57914
COSMOS 2378 [-]         
1 26818U 01023A   20034.90951989  .00000029  00000-0  14831-4 0  9992
2 26818  82.9302 144.8105 0033928  43.7406 316.6433 13.73939864935593
COSMOS 2389 [-]         
1 27436U 02026A   20034.94089531  .00000029  00000-0  15083-4 0  9992
2 27436  82.9494  89.6423 0044943 267.5458 266.4455 13.74942097887622
COSMOS 2398 [-]         
1 27818U 03023A   20034.98151193 -.00000002  00000-0 -17795-4 0  9997
2 27818  82.9463  48.4043 0029913 293.6053  66.1947 13.72174576834837
COSMOS 2407 [+]         
1 28380U 04028A   20034.90465971  .00000013  00000-0 -22323-5 0  9997
2 28380  82.9623 356.4237 0037807 275.2349  84.4487 13.76073243780264
COSMOS 2414 [+]         
1 28521U 05002A   20035.12768266 -.00000007  00000-0 -19238-4 0  9999
2 28521  82.9505   1.6394 0041443 116.1711 244.3720 13.87616968761681
COSMOS 2429 [-]         
1 32052U 07038A   20034.92019232  .00000020  00000-0  50744-5 0  9994
2 32052  82.9814 119.2656 0037211 246.7300 112.9937 13.74923086622197
COSMOS 2454 [-]         
1 35635U 09039A   20035.14118130  .00000021  00000-0  40105-5 0  9990
2 35635  82.9580 349.5897 0020804  71.1655 289.1763 13.89647769534659
COSMOS 2463 [+]         
1 36519U 10017A   20035.10948309  .00000092  00000-0  84710-4 0  9992
2 36519  82.9620 157.6662 0037650 100.3256 260.2145 13.71441111489313
